0 ARIANE 1 DEB
1 25766U 79104H   13285.37694640  .00001286  00000-0  38065-2 0  6702
2 25766 020.5110 094.0089 5919180 277.1315 346.7381 03.96164199207599
0 ARIANE 1 DEB
1 25766U 79104H   13293.18889818  .00001722  00000-0  48949-2 0  6711
2 25766 020.5113 088.2384 5918903 287.5647 328.3416 03.96196055207906
0 ARIANE 1 DEB
1 25766U 79104H   13294.20303813  .00001437  00000-0  41344-2 0  6727
2 25766 020.5037 087.4656 5918306 288.9318 334.7911 03.96200444207944
